[
    {
        "Altitude(m)": 702678.9982066519,
        "Argument of Periapsis(deg)": 0.0022780242373254137,
        "Eccentricity": 0.0,
        "Inclination(deg)": 45.0,
        "Latitude(deg)": 13.101983476709036,
        "Longitude(deg)": 43.2546874174043,
        "Mean Anomaly(deg)": 18.670243329496156,
        "RAAN(deg)": 129.99784961170838,
        "Satellite Name": "Constellation 1 573",
        "Satellite Number": 573,
        "Semi-Major Axis(m)": 7083131.272910544,
        "Time(s)": 38
    },
    {
        "Altitude(m)": 702679.5791994443,
        "Argument of Periapsis(deg)": 0.002337972243570819,
        "Eccentricity": 0.0,
        "Inclination(deg)": 45.0,
        "Latitude(deg)": 13.14401459959565,
        "Longitude(deg)": 43.29576490054461,
        "Mean Anomaly(deg)": 18.730944469746067,
        "RAAN(deg)": 129.9977930225428,
        "Satellite Name": "Constellation 1 573",
        "Satellite Number": 573,
        "Semi-Major Axis(m)": 7083131.272910544,
        "Time(s)": 39
    },
    {
        "Altitude(m)": 702680.1785197033,
        "Argument of Periapsis(deg)": 0.0023979202498162246,
        "Eccentricity": 0.0,
        "Inclination(deg)": 45.0,
        "Latitude(deg)": 13.186037677158396,
        "Longitude(deg)": 43.33685779356587,
        "Mean Anomaly(deg)": 18.791645609995953,
        "RAAN(deg)": 129.9977364333772,
        "Satellite Name": "Constellation 1 573",
        "Satellite Number": 573,
        "Semi-Major Axis(m)": 7083131.272910544,
        "Time(s)": 40
    },
    {
        "Altitude(m)": 702680.7961467003,
        "Argument of Periapsis(deg)": 0.00245786825606163,
        "Eccentricity": 0.0,
        "Inclination(deg)": 45.0,
        "Latitude(deg)": 13.22805267993208,
        "Longitude(deg)": 43.377966149641985,
        "Mean Anomaly(deg)": 18.852346750245864,
        "RAAN(deg)": 129.99767984421166,
        "Satellite Name": "Constellation 1 573",
        "Satellite Number": 573,
        "Semi-Major Axis(m)": 7083131.272910544,
        "Time(s)": 41
    },
    {
        "Altitude(m)": 702681.4320596204,
        "Argument of Periapsis(deg)": 0.002517816262307036,
        "Eccentricity": 0.0,
        "Inclination(deg)": 45.0,
        "Latitude(deg)": 13.270059578421462,
        "Longitude(deg)": 43.41909002197564,
        "Mean Anomaly(deg)": 18.91304789049575,
        "RAAN(deg)": 129.99762325504608,
        "Satellite Name": "Constellation 1 573",
        "Satellite Number": 573,
        "Semi-Major Axis(m)": 7083131.272910544,
        "Time(s)": 42
    },
    {
        "Altitude(m)": 702682.0862375865,
        "Argument of Periapsis(deg)": 0.0025777642685524413,
        "Eccentricity": 0.0,
        "Inclination(deg)": 45.0,
        "Latitude(deg)": 13.312058343101118,
        "Longitude(deg)": 43.46022946379823,
        "Mean Anomaly(deg)": 18.973749030745665,
        "RAAN(deg)": 129.99756666588053,
        "Satellite Name": "Constellation 1 573",
        "Satellite Number": 573,
        "Semi-Major Axis(m)": 7083131.272910544,
        "Time(s)": 43
    },
    {
        "Altitude(m)": 702682.7586596389,
        "Argument of Periapsis(deg)": 0.002637712274797847,
        "Eccentricity": 0.0,
        "Inclination(deg)": 45.0,
        "Latitude(deg)": 13.354048944415096,
        "Longitude(deg)": 43.50138436027277,
        "Mean Anomaly(deg)": 19.03445017099555,
        "RAAN(deg)": 129.99751007671495,
        "Satellite Name": "Constellation 1 573",
        "Satellite Number": 573,
        "Semi-Major Axis(m)": 7083131.272910544,
        "Time(s)": 44
    },
    {
        "Altitude(m)": 702683.4493047398,
        "Argument of Periapsis(deg)": 0.0026976602810432526,
        "Eccentricity": 0.0,
        "Inclination(deg)": 45.0,
        "Latitude(deg)": 13.396031352777829,
        "Longitude(deg)": 43.54255510088247,
        "Mean Anomaly(deg)": 19.095151311245463,
        "RAAN(deg)": 129.99745348754936,
        "Satellite Name": "Constellation 1 573",
        "Satellite Number": 573,
        "Semi-Major Axis(m)": 7083131.272910544,
        "Time(s)": 45
    },
    {
        "Altitude(m)": 702684.1581517776,
        "Argument of Periapsis(deg)": 0.0027576082872886585,
        "Eccentricity": 0.0,
        "Inclination(deg)": 45.0,
        "Latitude(deg)": 13.438005538572506,
        "Longitude(deg)": 43.583741570848076,
        "Mean Anomaly(deg)": 19.155852451495374,
        "RAAN(deg)": 129.9973968983838,
        "Satellite Name": "Constellation 1 573",
        "Satellite Number": 573,
        "Semi-Major Axis(m)": 7083131.272910544,
        "Time(s)": 46
    },
    {
        "Altitude(m)": 702684.8851795673,
        "Argument of Periapsis(deg)": 0.0028175562935340644,
        "Eccentricity": 0.0,
        "Inclination(deg)": 45.0,
        "Latitude(deg)": 13.479971472151904,
        "Longitude(deg)": 43.6249438235163,
        "Mean Anomaly(deg)": 19.21655359174526,
        "RAAN(deg)": 129.99734030921823,
        "Satellite Name": "Constellation 1 573",
        "Satellite Number": 573,
        "Semi-Major Axis(m)": 7083131.272910544,
        "Time(s)": 47
    },
    {
        "Altitude(m)": 702685.6303668437,
        "Argument of Periapsis(deg)": 0.00287750429977947,
        "Eccentricity": 0.0,
        "Inclination(deg)": 45.0,
        "Latitude(deg)": 13.5219291238382,
        "Longitude(deg)": 43.66616191226305,
        "Mean Anomaly(deg)": 19.277254731995175,
        "RAAN(deg)": 129.99728372005268,
        "Satellite Name": "Constellation 1 573",
        "Satellite Number": 573,
        "Semi-Major Axis(m)": 7083131.272910544,
        "Time(s)": 48
    },
    {
        "Altitude(m)": 702686.3936922676,
        "Argument of Periapsis(deg)": 0.002937452306024875,
        "Eccentricity": 0.0,
        "Inclination(deg)": 45.0,
        "Latitude(deg)": 13.563878463922691,
        "Longitude(deg)": 43.70739589049306,
        "Mean Anomaly(deg)": 19.337955872245058,
        "RAAN(deg)": 129.99722713088713,
        "Satellite Name": "Constellation 1 573",
        "Satellite Number": 573,
        "Semi-Major Axis(m)": 7083131.272910544,
        "Time(s)": 49
    },
    {
        "Altitude(m)": 702687.1751344297,
        "Argument of Periapsis(deg)": 0.0029974003122702807,
        "Eccentricity": 0.0,
        "Inclination(deg)": 45.0,
        "Latitude(deg)": 13.605819462665727,
        "Longitude(deg)": 43.74864581164018,
        "Mean Anomaly(deg)": 19.398657012494972,
        "RAAN(deg)": 129.99717054172152,
        "Satellite Name": "Constellation 1 573",
        "Satellite Number": 573,
        "Semi-Major Axis(m)": 7083131.272910544,
        "Time(s)": 50
    },
    {
        "Altitude(m)": 702687.9746718336,
        "Argument of Periapsis(deg)": 0.0030573483185156866,
        "Eccentricity": 0.0,
        "Inclination(deg)": 45.0,
        "Latitude(deg)": 13.647752090296713,
        "Longitude(deg)": 43.78991172916748,
        "Mean Anomaly(deg)": 19.45935815274486,
        "RAAN(deg)": 129.99711395255596,
        "Satellite Name": "Constellation 1 573",
        "Satellite Number": 573,
        "Semi-Major Axis(m)": 7083131.272910544,
        "Time(s)": 51
    },
    {
        "Altitude(m)": 702688.7922829197,
        "Argument of Periapsis(deg)": 0.003117296324761092,
        "Eccentricity": 0.0,
        "Inclination(deg)": 45.0,
        "Latitude(deg)": 13.689676317013598,
        "Longitude(deg)": 43.83119352847005,
        "Mean Anomaly(deg)": 19.52005929299477,
        "RAAN(deg)": 129.99705736339038,
        "Satellite Name": "Constellation 1 573",
        "Satellite Number": 573,
        "Semi-Major Axis(m)": 7083131.272910544,
        "Time(s)": 52
    },
    {
        "Altitude(m)": 702689.6279460448,
        "Argument of Periapsis(deg)": 0.0031772443310064975,
        "Eccentricity": 0.0,
        "Inclination(deg)": 45.0,
        "Latitude(deg)": 13.731592112983847,
        "Longitude(deg)": 43.872491599263476,
        "Mean Anomaly(deg)": 19.580760433244656,
        "RAAN(deg)": 129.99700077422483,
        "Satellite Name": "Constellation 1 573",
        "Satellite Number": 573,
        "Semi-Major Axis(m)": 7083131.272910544,
        "Time(s)": 53
    },
    {
        "Altitude(m)": 702690.481639503,
        "Argument of Periapsis(deg)": 0.0032371923372519038,
        "Eccentricity": 0.0,
        "Inclination(deg)": 45.0,
        "Latitude(deg)": 13.773499448342823,
        "Longitude(deg)": 43.9138058270013,
        "Mean Anomaly(deg)": 19.641461573494542,
        "RAAN(deg)": 129.99694418505928,
        "Satellite Name": "Constellation 1 573",
        "Satellite Number": 573,
        "Semi-Major Axis(m)": 7083131.272910544,
        "Time(s)": 54
    },
    {
        "Altitude(m)": 702691.3533414927,
        "Argument of Periapsis(deg)": 0.0032971403434973088,
        "Eccentricity": 0.0,
        "Inclination(deg)": 45.0,
        "Latitude(deg)": 13.815398293194727,
        "Longitude(deg)": 43.95513626526353,
        "Mean Anomaly(deg)": 19.702162713744457,
        "RAAN(deg)": 129.99688759589367,
        "Satellite Name": "Constellation 1 573",
        "Satellite Number": 573,
        "Semi-Major Axis(m)": 7083131.272910544,
        "Time(s)": 55
    },
    {
        "Altitude(m)": 702692.243030157,
        "Argument of Periapsis(deg)": 0.0033570883497427146,
        "Eccentricity": 0.0,
        "Inclination(deg)": 45.0,
        "Latitude(deg)": 13.857288617612134,
        "Longitude(deg)": 43.99648296765955,
        "Mean Anomaly(deg)": 19.76286385399434,
        "RAAN(deg)": 129.99683100672812,
        "Satellite Name": "Constellation 1 573",
        "Satellite Number": 573,
        "Semi-Major Axis(m)": 7083131.272910544,
        "Time(s)": 56
    }
]